{
"type": "FeatureCollection",
"name": "sommarioni_sample",
"crs": { "type": "name", "properties": { "name": "urn:ogc:def:crs:OGC:1.3:CRS84" } },
"features": [
{ "type": "Feature", "properties": { "geometry_id": 79 }, "geometry": { "type": "Polygon", "coordinates": [ [ [ 12.3348009, 45.439267 ], [ 12.3348654, 45.4393149 ], [ 12.3348199, 45.43934 ], [ 12.3347622, 45.4392896 ], [ 12.3348009, 45.439267 ] ] ] } },
{ "type": "Feature", "properties": { "geometry_id": 145 }, "geometry": { "type": "Polygon", "coordinates": [ [ [ 12.3339732, 45.4397119 ], [ 12.3339461, 45.4397271 ], [ 12.33389, 45.4396776 ], [ 12.3339166, 45.4396618 ], [ 12.3339732, 45.4397119 ] ] ] } },
{ "type": "Feature", "properties": { "geometry_id": 258 }, "geometry": { "type": "Polygon", "coordinates": [ [ [ 12.3367257, 45.4330209 ], [ 12.3364874, 45.4329605 ], [ 12.3365234, 45.4328783 ], [ 12.3365388, 45.4328813 ], [ 12.3365291, 45.4329058 ], [ 12.3365898, 45.4329177 ], [ 12.3366203, 45.432841 ], [ 12.3365441, 45.4328261 ], [ 12.3365695, 45.4327643 ], [ 12.3366899, 45.4328029 ], [ 12.3367247, 45.4328114 ], [ 12.3367144, 45.4328339 ], [ 12.3366961, 45.4328726 ], [ 12.3367398, 45.4328828 ], [ 12.3367332, 45.4329005 ], [ 12.3367126, 45.4329408 ], [ 12.336758, 45.4329522 ], [ 12.3367354, 45.4329978 ], [ 12.3367257, 45.4330209 ] ] ] } },
{ "type": "Feature", "properties": { "geometry_id": 580 }, "geometry": { "type": "Polygon", "coordinates": [ [ [ 12.3371647, 45.4331497 ], [ 12.3371401, 45.4331962 ], [ 12.3370414, 45.4331712 ], [ 12.337065, 45.4331248 ], [ 12.3371647, 45.4331497 ] ] ] } },
{ "type": "Feature", "properties": { "geometry_id": 808 }, "geometry": { "type": "Polygon", "coordinates": [ [ [ 12.3292385, 45.4389391 ], [ 12.3292756, 45.4389132 ], [ 12.3292841, 45.4389064 ], [ 12.3293765, 45.4389718 ], [ 12.3293572, 45.4389853 ], [ 12.3293308, 45.4390036 ], [ 12.3293139, 45.4389909 ], [ 12.3292385, 45.4389391 ] ] ] } },
{ "type": "Feature", "properties": { "geometry_id": 841 }, "geometry": { "type": "Polygon", "coordinates": [ [ [ 12.3291124, 45.440518 ], [ 12.3291471, 45.4405491 ], [ 12.3291069, 45.4405739 ], [ 12.3290774, 45.4405503 ], [ 12.3290515, 45.4405663 ], [ 12.3290266, 45.4405492 ], [ 12.3290993, 45.440507 ], [ 12.3291124, 45.440518 ] ] ] } },
{ "type": "Feature", "properties": { "geometry_id": 1027 }, "geometry": { "type": "Polygon", "coordinates": [ [ [ 12.3302333, 45.4413544 ], [ 12.3301942, 45.4413157 ], [ 12.3302996, 45.4412622 ], [ 12.3303763, 45.441341 ], [ 12.3303124, 45.4413723 ], [ 12.3302757, 45.4413352 ], [ 12.3302333, 45.4413544 ] ] ] } },
{ "type": "Feature", "properties": { "geometry_id": 1131 }, "geometry": { "type": "Polygon", "coordinates": [ [ [ 12.3282159, 45.440432 ], [ 12.3281946, 45.4404093 ], [ 12.3282647, 45.4403748 ], [ 12.3282833, 45.4403984 ], [ 12.3282576, 45.4404117 ], [ 12.3282159, 45.440432 ] ] ] } },
{ "type": "Feature", "properties": { "geometry_id": 1425 }, "geometry": { "type": "Polygon", "coordinates": [ [ [ 12.3269584, 45.4407714 ], [ 12.3268464, 45.4407734 ], [ 12.3268406, 45.4407288 ], [ 12.3269525, 45.4407187 ], [ 12.3269566, 45.4407436 ], [ 12.3269584, 45.4407714 ] ] ] } },
{ "type": "Feature", "properties": { "geometry_id": 1425 }, "geometry": { "type": "Polygon", "coordinates": [ [ [ 12.3269566, 45.4407436 ], [ 12.3269525, 45.4407187 ], [ 12.3270572, 45.4407095 ], [ 12.3270863, 45.4407062 ], [ 12.3270908, 45.4407356 ], [ 12.3269566, 45.4407436 ] ] ] } },
{ "type": "Feature", "properties": { "geometry_id": 1457 }, "geometry": { "type": "Polygon", "coordinates": [ [ [ 12.3264941, 45.4420277 ], [ 12.3265269, 45.4418405 ], [ 12.3264052, 45.4418255 ], [ 12.326442, 45.4416599 ], [ 12.3264867, 45.441662 ], [ 12.3267017, 45.4416823 ], [ 12.3266643, 45.4420531 ], [ 12.3264941, 45.4420277 ] ] ] } },
{ "type": "Feature", "properties": { "geometry_id": 1925 }, "geometry": { "type": "Polygon", "coordinates": [ [ [ 12.3355242, 45.4343294 ], [ 12.335554, 45.434334 ], [ 12.335575, 45.4342902 ], [ 12.3357012, 45.4343204 ], [ 12.3356539, 45.4344265 ], [ 12.3354949, 45.4343924 ], [ 12.3355242, 45.4343294 ] ] ] } },
{ "type": "Feature", "properties": { "geometry_id": 2039 }, "geometry": { "type": "Polygon", "coordinates": [ [ [ 12.326662, 45.4367089 ], [ 12.326628, 45.4366702 ], [ 12.3267064, 45.4366316 ], [ 12.3267293, 45.436622 ], [ 12.3267438, 45.4366349 ], [ 12.3267581, 45.4366498 ], [ 12.3267351, 45.4366607 ], [ 12.3267447, 45.4366707 ], [ 12.326662, 45.4367089 ] ] ] } },
{ "type": "Feature", "properties": { "geometry_id": 2091 }, "geometry": { "type": "Polygon", "coordinates": [ [ [ 12.3349977, 45.4343816 ], [ 12.3349275, 45.4343675 ], [ 12.3349365, 45.4343454 ], [ 12.3349789, 45.4343539 ], [ 12.3349765, 45.4343597 ], [ 12.3350044, 45.4343652 ], [ 12.3349977, 45.4343816 ] ] ] } },
{ "type": "Feature", "properties": { "geometry_id": 2091 }, "geometry": { "type": "Polygon", "coordinates": [ [ [ 12.3350044, 45.4343652 ], [ 12.3349765, 45.4343597 ], [ 12.3349789, 45.4343539 ], [ 12.3349365, 45.4343454 ], [ 12.3349275, 45.4343675 ], [ 12.3348921, 45.4343618 ], [ 12.3348163, 45.4343472 ], [ 12.3348041, 45.4343781 ], [ 12.3347078, 45.4343578 ], [ 12.3347381, 45.4343104 ], [ 12.3348719, 45.4343376 ], [ 12.3349068, 45.4342783 ], [ 12.3350311, 45.4343093 ], [ 12.3350044, 45.4343652 ] ] ] } },
{ "type": "Feature", "properties": { "geometry_id": 2166 }, "geometry": { "type": "Polygon", "coordinates": [ [ [ 12.3264022, 45.4357212 ], [ 12.3263942, 45.4357084 ], [ 12.3263433, 45.4356284 ], [ 12.3263223, 45.4355944 ], [ 12.3263505, 45.4355814 ], [ 12.3263945, 45.4355649 ], [ 12.3264588, 45.4356802 ], [ 12.3264149, 45.4356939 ], [ 12.326426, 45.4357147 ], [ 12.3264022, 45.4357212 ] ] ] } },
{ "type": "Feature", "properties": { "geometry_id": 2166 }, "geometry": { "type": "Polygon", "coordinates": [ [ [ 12.3264778, 45.4357659 ], [ 12.326445, 45.4357098 ], [ 12.326426, 45.4357147 ], [ 12.3264149, 45.4356939 ], [ 12.3264588, 45.4356802 ], [ 12.3264986, 45.4357554 ], [ 12.3264778, 45.4357659 ] ] ] } },
{ "type": "Feature", "properties": { "geometry_id": 2384 }, "geometry": { "type": "Polygon", "coordinates": [ [ [ 12.3231988, 45.4371035 ], [ 12.323183, 45.4370724 ], [ 12.3232616, 45.4370524 ], [ 12.3232767, 45.4370482 ], [ 12.323293, 45.4370788 ], [ 12.3231988, 45.4371035 ] ] ] } },
{ "type": "Feature", "properties": { "geometry_id": 3417 }, "geometry": { "type": "Polygon", "coordinates": [ [ [ 12.3171742, 45.4339439 ], [ 12.3170204, 45.433921 ], [ 12.3170306, 45.4338861 ], [ 12.3171862, 45.4339093 ], [ 12.3171742, 45.4339439 ] ] ] } },
{ "type": "Feature", "properties": { "geometry_id": 3468 }, "geometry": { "type": "Polygon", "coordinates": [ [ [ 12.3168522, 45.4334672 ], [ 12.3168622, 45.4334491 ], [ 12.3168967, 45.433383 ], [ 12.3169577, 45.4333985 ], [ 12.3169141, 45.4334829 ], [ 12.3168522, 45.4334672 ] ] ] } },
{ "type": "Feature", "properties": { "geometry_id": 3801 }, "geometry": { "type": "Polygon", "coordinates": [ [ [ 12.3169992, 45.4327064 ], [ 12.3169716, 45.4327524 ], [ 12.3168699, 45.4327224 ], [ 12.3168991, 45.4326762 ], [ 12.3169374, 45.4326887 ], [ 12.3169992, 45.4327064 ] ] ] } },
{ "type": "Feature", "properties": { "geometry_id": 3842 }, "geometry": { "type": "Polygon", "coordinates": [ [ [ 12.3169116, 45.4322366 ], [ 12.3169301, 45.4321315 ], [ 12.3170274, 45.4321417 ], [ 12.3170078, 45.4322475 ], [ 12.3169116, 45.4322366 ] ] ] } },
{ "type": "Feature", "properties": { "geometry_id": 3895 }, "geometry": { "type": "Polygon", "coordinates": [ [ [ 12.3181456, 45.4322009 ], [ 12.3181471, 45.4321818 ], [ 12.318206, 45.4321841 ], [ 12.3182029, 45.4322228 ], [ 12.318144, 45.4322205 ], [ 12.3181456, 45.4322009 ] ] ] } },
{ "type": "Feature", "properties": { "geometry_id": 4143 }, "geometry": { "type": "Polygon", "coordinates": [ [ [ 12.3220543, 45.4331908 ], [ 12.3219109, 45.4331313 ], [ 12.3220209, 45.4330005 ], [ 12.3221604, 45.4330583 ], [ 12.3221407, 45.4330817 ], [ 12.3222053, 45.4331085 ], [ 12.3222115, 45.4331012 ], [ 12.3222386, 45.4331124 ], [ 12.3221801, 45.4331819 ], [ 12.3221272, 45.43316 ], [ 12.3220891, 45.4332052 ], [ 12.3220543, 45.4331908 ] ] ] } },
{ "type": "Feature", "properties": { "geometry_id": 4367 }, "geometry": { "type": "Polygon", "coordinates": [ [ [ 12.3248238, 45.4343993 ], [ 12.3248459, 45.4344333 ], [ 12.3248316, 45.434438 ], [ 12.324756, 45.4344639 ], [ 12.3247318, 45.4344287 ], [ 12.3247766, 45.4344144 ], [ 12.3248238, 45.4343993 ] ] ] } },
{ "type": "Feature", "properties": { "geometry_id": 4509 }, "geometry": { "type": "Polygon", "coordinates": [ [ [ 12.3354959, 45.4364437 ], [ 12.3355286, 45.4364037 ], [ 12.3355555, 45.4364193 ], [ 12.3355701, 45.4364262 ], [ 12.3355364, 45.4364659 ], [ 12.3354959, 45.4364437 ] ] ] } },
{ "type": "Feature", "properties": { "geometry_id": 4819 }, "geometry": { "type": "Polygon", "coordinates": [ [ [ 12.3258497, 45.4320761 ], [ 12.3258071, 45.43207 ], [ 12.3258207, 45.4320234 ], [ 12.3258633, 45.4320295 ], [ 12.3258497, 45.4320761 ] ] ] } },
{ "type": "Feature", "properties": { "geometry_id": 4819 }, "geometry": { "type": "Polygon", "coordinates": [ [ [ 12.3258633, 45.4320295 ], [ 12.3259176, 45.4320373 ], [ 12.325904, 45.4320839 ], [ 12.3258497, 45.4320761 ], [ 12.3258633, 45.4320295 ] ] ] } },
{ "type": "Feature", "properties": { "geometry_id": 4849 }, "geometry": { "type": "Polygon", "coordinates": [ [ [ 12.3239458, 45.4315147 ], [ 12.3241753, 45.4314759 ], [ 12.3241929, 45.431524 ], [ 12.3241439, 45.4315336 ], [ 12.3239615, 45.4315623 ], [ 12.3239458, 45.4315147 ] ] ] } },
{ "type": "Feature", "properties": { "geometry_id": 4849 }, "geometry": { "type": "Polygon", "coordinates": [ [ [ 12.323927, 45.4315177 ], [ 12.3239458, 45.4315147 ], [ 12.3239615, 45.4315623 ], [ 12.3239427, 45.4315653 ], [ 12.323927, 45.4315177 ] ] ] } },
{ "type": "Feature", "properties": { "geometry_id": 4849 }, "geometry": { "type": "Polygon", "coordinates": [ [ [ 12.3239427, 45.4315653 ], [ 12.3238083, 45.4315871 ], [ 12.3237926, 45.4315395 ], [ 12.323927, 45.4315177 ], [ 12.3239427, 45.4315653 ] ] ] } },
{ "type": "Feature", "properties": { "geometry_id": 4922 }, "geometry": { "type": "Polygon", "coordinates": [ [ [ 12.3222775, 45.4307526 ], [ 12.3222355, 45.4306186 ], [ 12.3223021, 45.4306067 ], [ 12.3223482, 45.4307409 ], [ 12.3222775, 45.4307526 ] ] ] } },
{ "type": "Feature", "properties": { "geometry_id": 5064 }, "geometry": { "type": "Polygon", "coordinates": [ [ [ 12.335907, 45.4356541 ], [ 12.3358465, 45.4356394 ], [ 12.3358686, 45.4356106 ], [ 12.3359255, 45.4356262 ], [ 12.335907, 45.4356541 ] ] ] } },
{ "type": "Feature", "properties": { "geometry_id": 5071 }, "geometry": { "type": "Polygon", "coordinates": [ [ [ 12.3260296, 45.4298842 ], [ 12.3260606, 45.4299263 ], [ 12.3259481, 45.4299711 ], [ 12.3259024, 45.4299294 ], [ 12.3260171, 45.4298886 ], [ 12.3260296, 45.4298842 ] ] ] } },
{ "type": "Feature", "properties": { "geometry_id": 5250 }, "geometry": { "type": "Polygon", "coordinates": [ [ [ 12.3283326, 45.4295654 ], [ 12.3282797, 45.4294543 ], [ 12.3283687, 45.4294334 ], [ 12.3283925, 45.4294809 ], [ 12.3284211, 45.4295448 ], [ 12.3283326, 45.4295654 ] ] ] } },
{ "type": "Feature", "properties": { "geometry_id": 5312 }, "geometry": { "type": "Polygon", "coordinates": [ [ [ 12.3302635, 45.430009 ], [ 12.3303083, 45.4300748 ], [ 12.3302642, 45.4300885 ], [ 12.3302422, 45.4300558 ], [ 12.3302116, 45.4300634 ], [ 12.3301894, 45.4300333 ], [ 12.3302335, 45.4300188 ], [ 12.3302635, 45.430009 ] ] ] } },
{ "type": "Feature", "properties": { "geometry_id": 5539 }, "geometry": { "type": "Polygon", "coordinates": [ [ [ 12.3317447, 45.4300464 ], [ 12.3317605, 45.4301332 ], [ 12.3318894, 45.4301306 ], [ 12.3318997, 45.4301286 ], [ 12.3319324, 45.4303 ], [ 12.3316203, 45.4302949 ], [ 12.331611, 45.4301993 ], [ 12.3316001, 45.4301305 ], [ 12.3315902, 45.4300584 ], [ 12.3317106, 45.4300498 ], [ 12.3317447, 45.4300464 ] ] ] } },
{ "type": "Feature", "properties": { "geometry_id": 5539 }, "geometry": { "type": "Polygon", "coordinates": [ [ [ 12.3318894, 45.4301306 ], [ 12.3317605, 45.4301332 ], [ 12.3317447, 45.4300464 ], [ 12.3318722, 45.4300352 ], [ 12.3318818, 45.430089 ], [ 12.3318894, 45.4301306 ] ] ] } },
{ "type": "Feature", "properties": { "geometry_id": 5662 }, "geometry": { "type": "Polygon", "coordinates": [ [ [ 12.3329762, 45.4302157 ], [ 12.3328922, 45.4302109 ], [ 12.3328981, 45.4301539 ], [ 12.3329024, 45.4301397 ], [ 12.3329914, 45.4301466 ], [ 12.3329858, 45.4301763 ], [ 12.3329762, 45.4302157 ] ] ] } },
{ "type": "Feature", "properties": { "geometry_id": 5701 }, "geometry": { "type": "Polygon", "coordinates": [ [ [ 12.333197, 45.4295605 ], [ 12.3332717, 45.4295705 ], [ 12.3332581, 45.4296105 ], [ 12.333208, 45.4296012 ], [ 12.3331848, 45.4295974 ], [ 12.333197, 45.4295605 ] ] ] } },
{ "type": "Feature", "properties": { "geometry_id": 5911 }, "geometry": { "type": "Polygon", "coordinates": [ [ [ 12.3559551, 45.4320332 ], [ 12.3559656, 45.4319862 ], [ 12.3560334, 45.4319934 ], [ 12.3560218, 45.4320409 ], [ 12.3559551, 45.4320332 ] ] ] } },
{ "type": "Feature", "properties": { "geometry_id": 6264 }, "geometry": { "type": "Polygon", "coordinates": [ [ [ 12.3536974, 45.4321847 ], [ 12.3536877, 45.432207 ], [ 12.3536471, 45.4322008 ], [ 12.3536564, 45.4321713 ], [ 12.3536997, 45.4321769 ], [ 12.3536974, 45.4321847 ] ] ] } },
{ "type": "Feature", "properties": { "geometry_id": 6264 }, "geometry": { "type": "Polygon", "coordinates": [ [ [ 12.3536195, 45.4321665 ], [ 12.3536564, 45.4321713 ], [ 12.3536471, 45.4322008 ], [ 12.3536877, 45.432207 ], [ 12.3536572, 45.4322964 ], [ 12.3535795, 45.432288 ], [ 12.3536195, 45.4321665 ] ] ] } },
{ "type": "Feature", "properties": { "geometry_id": 6576 }, "geometry": { "type": "Polygon", "coordinates": [ [ [ 12.3371202, 45.4359275 ], [ 12.3372505, 45.435859 ], [ 12.3373206, 45.4359278 ], [ 12.337283, 45.4359457 ], [ 12.3372717, 45.4359325 ], [ 12.3371764, 45.4359812 ], [ 12.3371202, 45.4359275 ] ] ] } },
{ "type": "Feature", "properties": { "geometry_id": 6646 }, "geometry": { "type": "Polygon", "coordinates": [ [ [ 12.3358183, 45.4373444 ], [ 12.3358006, 45.4373213 ], [ 12.3358621, 45.4372998 ], [ 12.3358798, 45.4373229 ], [ 12.3358183, 45.4373444 ] ] ] } },
{ "type": "Feature", "properties": { "geometry_id": 6646 }, "geometry": { "type": "Polygon", "coordinates": [ [ [ 12.3359481, 45.4373212 ], [ 12.3356479, 45.4374276 ], [ 12.3355956, 45.4373724 ], [ 12.3355548, 45.4373844 ], [ 12.3355335, 45.4373536 ], [ 12.3357252, 45.4372865 ], [ 12.3359537, 45.4372051 ], [ 12.3360263, 45.4372904 ], [ 12.3359481, 45.4373212 ] ], [ [ 12.3358183, 45.4373444 ], [ 12.3358798, 45.4373229 ], [ 12.3358621, 45.4372998 ], [ 12.3358006, 45.4373213 ], [ 12.3358183, 45.4373444 ] ] ] } },
{ "type": "Feature", "properties": { "geometry_id": 6730 }, "geometry": { "type": "Polygon", "coordinates": [ [ [ 12.3369827, 45.4384573 ], [ 12.3369353, 45.4384627 ], [ 12.3364488, 45.4385215 ], [ 12.3363316, 45.438162 ], [ 12.3364557, 45.4381377 ], [ 12.3365066, 45.4381277 ], [ 12.3365553, 45.4381182 ], [ 12.3366009, 45.4381093 ], [ 12.3366095, 45.4381265 ], [ 12.3366352, 45.4381206 ], [ 12.3366139, 45.438064 ], [ 12.3366464, 45.4380576 ], [ 12.3366633, 45.4380965 ], [ 12.336695, 45.4380917 ], [ 12.3367446, 45.4380833 ], [ 12.3367968, 45.4380743 ], [ 12.3368415, 45.4380664 ], [ 12.3368529, 45.4380644 ], [ 12.3368649, 45.4380946 ], [ 12.3368542, 45.4380966 ], [ 12.3368688, 45.4381365 ], [ 12.3368786, 45.4381718 ], [ 12.3368903, 45.4382097 ], [ 12.3369027, 45.43825 ], [ 12.3369226, 45.4383147 ], [ 12.3369369, 45.4383609 ], [ 12.3369473, 45.4383948 ], [ 12.3369578, 45.4383951 ], [ 12.3369827, 45.4384573 ] ], [ [ 12.3365723, 45.4383481 ], [ 12.3367917, 45.4383101 ], [ 12.3367687, 45.4382521 ], [ 12.3367282, 45.4382596 ], [ 12.3367162, 45.4382279 ], [ 12.3367566, 45.4382204 ], [ 12.3367313, 45.4381534 ], [ 12.3365125, 45.4381895 ], [ 12.3365723, 45.4383481 ] ] ] } },
{ "type": "Feature", "properties": { "geometry_id": 6730 }, "geometry": { "type": "Polygon", "coordinates": [ [ [ 12.3365723, 45.4383481 ], [ 12.3365125, 45.4381895 ], [ 12.3367313, 45.4381534 ], [ 12.3367566, 45.4382204 ], [ 12.3367162, 45.4382279 ], [ 12.3367282, 45.4382596 ], [ 12.3367687, 45.4382521 ], [ 12.3367917, 45.4383101 ], [ 12.3365723, 45.4383481 ] ] ] } },
{ "type": "Feature", "properties": { "geometry_id": 6795 }, "geometry": { "type": "Polygon", "coordinates": [ [ [ 12.3376563, 45.4379121 ], [ 12.3377403, 45.4378974 ], [ 12.3377787, 45.437892 ], [ 12.3377647, 45.4379907 ], [ 12.337702, 45.4379996 ], [ 12.3376898, 45.4379675 ], [ 12.3376752, 45.437969 ], [ 12.3376563, 45.4379121 ] ] ] } },
{ "type": "Feature", "properties": { "geometry_id": 6809 }, "geometry": { "type": "Polygon", "coordinates": [ [ [ 12.3376573, 45.4377964 ], [ 12.3376725, 45.4377937 ], [ 12.33768, 45.437814 ], [ 12.3376476, 45.43782 ], [ 12.33764, 45.4377996 ], [ 12.3376573, 45.4377964 ] ] ] } },
{ "type": "Feature", "properties": { "geometry_id": 6809 }, "geometry": { "type": "Polygon", "coordinates": [ [ [ 12.33768, 45.437814 ], [ 12.3376725, 45.4377937 ], [ 12.3376573, 45.4377964 ], [ 12.3376334, 45.4377381 ], [ 12.337679, 45.437727 ], [ 12.3377578, 45.4377139 ], [ 12.3377772, 45.4377527 ], [ 12.3377859, 45.4377963 ], [ 12.33768, 45.437814 ] ] ] } },
{ "type": "Feature", "properties": { "geometry_id": 7188 }, "geometry": { "type": "Polygon", "coordinates": [ [ [ 12.3373859, 45.4342532 ], [ 12.3374209, 45.434267 ], [ 12.3373913, 45.4343317 ], [ 12.3373398, 45.434306 ], [ 12.3373859, 45.4342532 ] ] ] } },
{ "type": "Feature", "properties": { "geometry_id": 7482 }, "geometry": { "type": "Polygon", "coordinates": [ [ [ 12.34038, 45.4366787 ], [ 12.3404065, 45.4366867 ], [ 12.340401, 45.4367068 ], [ 12.3403692, 45.4366981 ], [ 12.34038, 45.4366787 ] ] ] } },
{ "type": "Feature", "properties": { "geometry_id": 7482 }, "geometry": { "type": "Polygon", "coordinates": [ [ [ 12.3403699, 45.4367772 ], [ 12.3402415, 45.436741 ], [ 12.3402941, 45.4366552 ], [ 12.34038, 45.4366787 ], [ 12.3403692, 45.4366981 ], [ 12.340401, 45.4367068 ], [ 12.3403893, 45.4367279 ], [ 12.3403699, 45.4367772 ] ] ] } },
{ "type": "Feature", "properties": { "geometry_id": 7679 }, "geometry": { "type": "Polygon", "coordinates": [ [ [ 12.331333, 45.4322285 ], [ 12.3313218, 45.4321861 ], [ 12.3313462, 45.432184 ], [ 12.3313562, 45.4322258 ], [ 12.331333, 45.4322285 ] ] ] } },
{ "type": "Feature", "properties": { "geometry_id": 7679 }, "geometry": { "type": "Polygon", "coordinates": [ [ [ 12.3313527, 45.432302 ], [ 12.331333, 45.4322285 ], [ 12.3313562, 45.4322258 ], [ 12.3313462, 45.432184 ], [ 12.3313927, 45.4321792 ], [ 12.3314184, 45.4322947 ], [ 12.3313527, 45.432302 ] ] ] } },
{ "type": "Feature", "properties": { "geometry_id": 7679 }, "geometry": { "type": "Polygon", "coordinates": [ [ [ 12.3313218, 45.4321861 ], [ 12.331333, 45.4322285 ], [ 12.3313527, 45.432302 ], [ 12.3312328, 45.4323184 ], [ 12.3312012, 45.4322018 ], [ 12.3312521, 45.4321952 ], [ 12.3313218, 45.4321861 ] ] ] } },
{ "type": "Feature", "properties": { "geometry_id": 7746 }, "geometry": { "type": "Polygon", "coordinates": [ [ [ 12.3316136, 45.432462 ], [ 12.3316891, 45.4324503 ], [ 12.3317204, 45.4324459 ], [ 12.3317389, 45.4325013 ], [ 12.3317646, 45.4325849 ], [ 12.3316267, 45.4326062 ], [ 12.33161, 45.4325531 ], [ 12.3315994, 45.4325194 ], [ 12.3315829, 45.4324668 ], [ 12.3316136, 45.432462 ] ] ] } },
{ "type": "Feature", "properties": { "geometry_id": 7853 }, "geometry": { "type": "Polygon", "coordinates": [ [ [ 12.3365815, 45.439438 ], [ 12.3365813, 45.4394102 ], [ 12.3366007, 45.4394104 ], [ 12.3366006, 45.4394402 ], [ 12.3365815, 45.439438 ] ] ] } },
{ "type": "Feature", "properties": { "geometry_id": 7853 }, "geometry": { "type": "Polygon", "coordinates": [ [ [ 12.3363832, 45.43945 ], [ 12.3363906, 45.4394085 ], [ 12.3363945, 45.4393753 ], [ 12.3364194, 45.4393774 ], [ 12.3364288, 45.4393292 ], [ 12.3366182, 45.4393403 ], [ 12.3366138, 45.4393787 ], [ 12.3366792, 45.4393822 ], [ 12.3366771, 45.4394639 ], [ 12.3363832, 45.43945 ] ], [ [ 12.3365815, 45.439438 ], [ 12.3366006, 45.4394402 ], [ 12.3366007, 45.4394104 ], [ 12.3365813, 45.4394102 ], [ 12.3365815, 45.439438 ] ] ] } },
{ "type": "Feature", "properties": { "geometry_id": 7853 }, "geometry": { "type": "Polygon", "coordinates": [ [ [ 12.3364311, 45.4393168 ], [ 12.3364911, 45.4393199 ], [ 12.3365629, 45.4393244 ], [ 12.3366333, 45.4393284 ], [ 12.3366285, 45.4393704 ], [ 12.3366794, 45.4393755 ], [ 12.3366792, 45.4393822 ], [ 12.3366138, 45.4393787 ], [ 12.3366182, 45.4393403 ], [ 12.3364288, 45.4393292 ], [ 12.3364311, 45.4393168 ] ] ] } },
{ "type": "Feature", "properties": { "geometry_id": 7880 }, "geometry": { "type": "Polygon", "coordinates": [ [ [ 12.3363228, 45.439997 ], [ 12.3362544, 45.4399978 ], [ 12.3362837, 45.439911 ], [ 12.3363384, 45.4399152 ], [ 12.3363228, 45.439997 ] ] ] } },
{ "type": "Feature", "properties": { "geometry_id": 7916 }, "geometry": { "type": "Polygon", "coordinates": [ [ [ 12.3375421, 45.4395276 ], [ 12.3374918, 45.4394424 ], [ 12.3375242, 45.439431 ], [ 12.3375769, 45.4395209 ], [ 12.3375421, 45.4395276 ] ] ] } },
{ "type": "Feature", "properties": { "geometry_id": 8141 }, "geometry": { "type": "Polygon", "coordinates": [ [ [ 12.339944, 45.4418369 ], [ 12.3398802, 45.4418473 ], [ 12.3398106, 45.4418586 ], [ 12.3397902, 45.4417968 ], [ 12.3399236, 45.4417752 ], [ 12.339944, 45.4418369 ] ] ] } },
{ "type": "Feature", "properties": { "geometry_id": 8185 }, "geometry": { "type": "Polygon", "coordinates": [ [ [ 12.3398398, 45.4408584 ], [ 12.3399002, 45.4408241 ], [ 12.3399195, 45.4408139 ], [ 12.3399415, 45.4408345 ], [ 12.3398593, 45.4408769 ], [ 12.3398398, 45.4408584 ] ] ] } },
{ "type": "Feature", "properties": { "geometry_id": 8253 }, "geometry": { "type": "Polygon", "coordinates": [ [ [ 12.3395195, 45.4402512 ], [ 12.3394762, 45.440306 ], [ 12.3394516, 45.4402914 ], [ 12.3394664, 45.4402732 ], [ 12.3394932, 45.4402406 ], [ 12.3395195, 45.4402512 ] ] ] } },
{ "type": "Feature", "properties": { "geometry_id": 8305 }, "geometry": { "type": "Polygon", "coordinates": [ [ [ 12.3399946, 45.439683 ], [ 12.3400248, 45.4397463 ], [ 12.3400364, 45.4397694 ], [ 12.3400643, 45.4398334 ], [ 12.3400373, 45.4398427 ], [ 12.340034, 45.4398361 ], [ 12.3399596, 45.439687 ], [ 12.3399924, 45.4396786 ], [ 12.3399946, 45.439683 ] ] ] } },
{ "type": "Feature", "properties": { "geometry_id": 8324 }, "geometry": { "type": "Polygon", "coordinates": [ [ [ 12.3403705, 45.4398798 ], [ 12.340309, 45.4397943 ], [ 12.3403587, 45.4397815 ], [ 12.3404192, 45.4398675 ], [ 12.3403705, 45.4398798 ] ] ] } },
{ "type": "Feature", "properties": { "geometry_id": 8430 }, "geometry": { "type": "Polygon", "coordinates": [ [ [ 12.34127, 45.4404419 ], [ 12.3413951, 45.4404075 ], [ 12.341405, 45.4404234 ], [ 12.3412775, 45.4404563 ], [ 12.34127, 45.4404419 ] ] ] } },
{ "type": "Feature", "properties": { "geometry_id": 8430 }, "geometry": { "type": "Polygon", "coordinates": [ [ [ 12.3412901, 45.4404807 ], [ 12.3412775, 45.4404563 ], [ 12.341405, 45.4404234 ], [ 12.3413951, 45.4404075 ], [ 12.3414771, 45.4403848 ], [ 12.3415016, 45.4404274 ], [ 12.3412901, 45.4404807 ] ] ] } },
{ "type": "Feature", "properties": { "geometry_id": 8482 }, "geometry": { "type": "Polygon", "coordinates": [ [ [ 12.3401455, 45.4378088 ], [ 12.3401233, 45.4377823 ], [ 12.3400853, 45.4377414 ], [ 12.3402031, 45.4376918 ], [ 12.3402498, 45.4377144 ], [ 12.3402892, 45.4377527 ], [ 12.3401455, 45.4378088 ] ] ] } },
{ "type": "Feature", "properties": { "geometry_id": 8597 }, "geometry": { "type": "Polygon", "coordinates": [ [ [ 12.3420051, 45.437347 ], [ 12.3420272, 45.4373567 ], [ 12.3419978, 45.4374048 ], [ 12.3419753, 45.4373975 ], [ 12.3420051, 45.437347 ] ] ] } },
{ "type": "Feature", "properties": { "geometry_id": 9042 }, "geometry": { "type": "Polygon", "coordinates": [ [ [ 12.3436558, 45.440557 ], [ 12.343586, 45.4404551 ], [ 12.3437247, 45.4404239 ], [ 12.343783, 45.4405148 ], [ 12.3436558, 45.440557 ] ] ] } },
{ "type": "Feature", "properties": { "geometry_id": 9064 }, "geometry": { "type": "Polygon", "coordinates": [ [ [ 12.3439044, 45.4399987 ], [ 12.3437794, 45.4397822 ], [ 12.3438653, 45.4397579 ], [ 12.343896, 45.4398058 ], [ 12.3439978, 45.4399968 ], [ 12.3439208, 45.4400196 ], [ 12.3439044, 45.4399987 ] ] ] } },
{ "type": "Feature", "properties": { "geometry_id": 9127 }, "geometry": { "type": "Polygon", "coordinates": [ [ [ 12.3449803, 45.4386454 ], [ 12.3450298, 45.438639 ], [ 12.3450816, 45.4386324 ], [ 12.3450931, 45.4386825 ], [ 12.3449911, 45.4386982 ], [ 12.3449822, 45.4386582 ], [ 12.3449803, 45.4386454 ] ] ] } },
{ "type": "Feature", "properties": { "geometry_id": 9236 }, "geometry": { "type": "Polygon", "coordinates": [ [ [ 12.3454341, 45.435368 ], [ 12.345428, 45.4353466 ], [ 12.3454185, 45.4353129 ], [ 12.3455725, 45.4352888 ], [ 12.3456423, 45.435283 ], [ 12.345692, 45.4354112 ], [ 12.3455986, 45.4354135 ], [ 12.3455959, 45.4353956 ], [ 12.3455215, 45.4354003 ], [ 12.3454444, 45.4354042 ], [ 12.3454341, 45.435368 ] ] ] } },
{ "type": "Feature", "properties": { "geometry_id": 9236 }, "geometry": { "type": "Polygon", "coordinates": [ [ [ 12.3456423, 45.435283 ], [ 12.3457922, 45.4352573 ], [ 12.3458485, 45.4352559 ], [ 12.3459038, 45.435406 ], [ 12.345692, 45.4354112 ], [ 12.3456423, 45.435283 ] ] ] } },
{ "type": "Feature", "properties": { "geometry_id": 9615 }, "geometry": { "type": "Polygon", "coordinates": [ [ [ 12.3469656, 45.4372519 ], [ 12.347038, 45.4372508 ], [ 12.3470357, 45.4373519 ], [ 12.3469634, 45.437356 ], [ 12.3469654, 45.4372844 ], [ 12.3469656, 45.4372519 ] ] ] } },
{ "type": "Feature", "properties": { "geometry_id": 9626 }, "geometry": { "type": "Polygon", "coordinates": [ [ [ 12.3465619, 45.4373242 ], [ 12.3463887, 45.437337 ], [ 12.3463756, 45.4372547 ], [ 12.3465539, 45.4372474 ], [ 12.3465619, 45.4373242 ] ] ] } },
{ "type": "Feature", "properties": { "geometry_id": 9922 }, "geometry": { "type": "Polygon", "coordinates": [ [ [ 12.3301054, 45.4350735 ], [ 12.3300353, 45.4351881 ], [ 12.3300729, 45.4351984 ], [ 12.3301161, 45.4352123 ], [ 12.330179, 45.4351006 ], [ 12.3302654, 45.4351251 ], [ 12.33009, 45.435459 ], [ 12.3298587, 45.4353829 ], [ 12.3300668, 45.4350082 ], [ 12.3301298, 45.4350288 ], [ 12.3301054, 45.4350735 ] ] ] } },
{ "type": "Feature", "properties": { "geometry_id": 9922 }, "geometry": { "type": "Polygon", "coordinates": [ [ [ 12.3300729, 45.4351984 ], [ 12.3300353, 45.4351881 ], [ 12.3301054, 45.4350735 ], [ 12.3301398, 45.4350889 ], [ 12.3300729, 45.4351984 ] ] ] } },
{ "type": "Feature", "properties": { "geometry_id": 9922 }, "geometry": { "type": "Polygon", "coordinates": [ [ [ 12.3301684, 45.4350975 ], [ 12.330179, 45.4351006 ], [ 12.3301161, 45.4352123 ], [ 12.3300729, 45.4351984 ], [ 12.3301398, 45.4350889 ], [ 12.3301684, 45.4350975 ] ] ] } },
{ "type": "Feature", "properties": { "geometry_id": 10368 }, "geometry": { "type": "Polygon", "coordinates": [ [ [ 12.3338789, 45.4410525 ], [ 12.3338199, 45.4410812 ], [ 12.333613, 45.4408871 ], [ 12.3336882, 45.4408561 ], [ 12.3338789, 45.4410525 ] ] ] } },
{ "type": "Feature", "properties": { "geometry_id": 10531 }, "geometry": { "type": "Polygon", "coordinates": [ [ [ 12.3336999, 45.4420688 ], [ 12.3337553, 45.4420383 ], [ 12.3337889, 45.4420745 ], [ 12.3337389, 45.4421024 ], [ 12.3336999, 45.4420688 ] ] ] } },
{ "type": "Feature", "properties": { "geometry_id": 10647 }, "geometry": { "type": "Polygon", "coordinates": [ [ [ 12.3355442, 45.4424318 ], [ 12.3355845, 45.442413 ], [ 12.3356147, 45.4424487 ], [ 12.3355711, 45.4424629 ], [ 12.3355442, 45.4424318 ] ] ] } },
{ "type": "Feature", "properties": { "geometry_id": 10695 }, "geometry": { "type": "Polygon", "coordinates": [ [ [ 12.3355581, 45.4418739 ], [ 12.3356481, 45.4418355 ], [ 12.3356972, 45.4418922 ], [ 12.335642, 45.4419162 ], [ 12.3356073, 45.4419302 ], [ 12.3355581, 45.4418739 ] ] ] } },
{ "type": "Feature", "properties": { "geometry_id": 10742 }, "geometry": { "type": "Polygon", "coordinates": [ [ [ 12.3359372, 45.4409427 ], [ 12.3359088, 45.4409551 ], [ 12.3358593, 45.4409061 ], [ 12.3358916, 45.4408919 ], [ 12.3359372, 45.4409427 ] ] ] } },
{ "type": "Feature", "properties": { "geometry_id": 10904 }, "geometry": { "type": "Polygon", "coordinates": [ [ [ 12.3377123, 45.4413408 ], [ 12.3378584, 45.4413242 ], [ 12.3378522, 45.4413416 ], [ 12.3377161, 45.4413577 ], [ 12.3377123, 45.4413408 ] ] ] } },
{ "type": "Feature", "properties": { "geometry_id": 10904 }, "geometry": { "type": "Polygon", "coordinates": [ [ [ 12.3377123, 45.4413408 ], [ 12.337687, 45.4412361 ], [ 12.3378269, 45.44122 ], [ 12.3378584, 45.4413242 ], [ 12.3377123, 45.4413408 ] ] ] } },
{ "type": "Feature", "properties": { "geometry_id": 11003 }, "geometry": { "type": "Polygon", "coordinates": [ [ [ 12.3387254, 45.4419011 ], [ 12.3386968, 45.441905 ], [ 12.3386137, 45.4419165 ], [ 12.3386099, 45.4419031 ], [ 12.3387217, 45.4418877 ], [ 12.3387254, 45.4419011 ] ] ] } },
{ "type": "Feature", "properties": { "geometry_id": 11003 }, "geometry": { "type": "Polygon", "coordinates": [ [ [ 12.3387217, 45.4418877 ], [ 12.338772, 45.4418812 ], [ 12.3387955, 45.4418773 ], [ 12.3387993, 45.4418904 ], [ 12.3387529, 45.4418973 ], [ 12.3387254, 45.4419011 ], [ 12.3387217, 45.4418877 ] ] ] } },
{ "type": "Feature", "properties": { "geometry_id": 11026 }, "geometry": { "type": "Polygon", "coordinates": [ [ [ 12.337501, 45.4423823 ], [ 12.337534, 45.4424393 ], [ 12.3375604, 45.4424948 ], [ 12.3373726, 45.4425425 ], [ 12.3373011, 45.4424266 ], [ 12.3373751, 45.4424118 ], [ 12.3374012, 45.4424573 ], [ 12.3374558, 45.4424419 ], [ 12.3374307, 45.4423979 ], [ 12.337501, 45.4423823 ] ] ] } },
{ "type": "Feature", "properties": { "geometry_id": 11357 }, "geometry": { "type": "Polygon", "coordinates": [ [ [ 12.3283315, 45.4333829 ], [ 12.3283546, 45.4333914 ], [ 12.3283454, 45.4334037 ], [ 12.3284544, 45.4334439 ], [ 12.3283938, 45.4335265 ], [ 12.3282631, 45.4334742 ], [ 12.3283286, 45.4333868 ], [ 12.3283315, 45.4333829 ] ] ] } },
{ "type": "Feature", "properties": { "geometry_id": 11357 }, "geometry": { "type": "Polygon", "coordinates": [ [ [ 12.3283286, 45.4333868 ], [ 12.328277, 45.4333674 ], [ 12.3282529, 45.4333579 ], [ 12.3282773, 45.4333256 ], [ 12.3282998, 45.4333342 ], [ 12.3283533, 45.4333543 ], [ 12.3283315, 45.4333829 ], [ 12.3283286, 45.4333868 ] ] ] } },
{ "type": "Feature", "properties": { "geometry_id": 11419 }, "geometry": { "type": "Polygon", "coordinates": [ [ [ 12.3315594, 45.4421123 ], [ 12.3316182, 45.4420659 ], [ 12.331828, 45.4421584 ], [ 12.33176, 45.4422468 ], [ 12.3314952, 45.4421695 ], [ 12.3315594, 45.4421123 ] ] ] } },
{ "type": "Feature", "properties": { "geometry_id": 11550 }, "geometry": { "type": "Polygon", "coordinates": [ [ [ 12.3318265, 45.4433037 ], [ 12.3318502, 45.4433191 ], [ 12.3318853, 45.4432943 ], [ 12.3318616, 45.443279 ], [ 12.3319227, 45.4432347 ], [ 12.3320415, 45.4433174 ], [ 12.3318549, 45.4434314 ], [ 12.3317502, 45.4433554 ], [ 12.3318265, 45.4433037 ] ] ] } },
{ "type": "Feature", "properties": { "geometry_id": 11550 }, "geometry": { "type": "Polygon", "coordinates": [ [ [ 12.3318616, 45.443279 ], [ 12.3318853, 45.4432943 ], [ 12.3318502, 45.4433191 ], [ 12.3318265, 45.4433037 ], [ 12.3318616, 45.443279 ] ] ] } },
{ "type": "Feature", "properties": { "geometry_id": 11624 }, "geometry": { "type": "Polygon", "coordinates": [ [ [ 12.3322479, 45.4454503 ], [ 12.3321855, 45.4453884 ], [ 12.3322055, 45.4453788 ], [ 12.3322681, 45.4454361 ], [ 12.3322479, 45.4454503 ] ] ] } },
{ "type": "Feature", "properties": { "geometry_id": 11765 }, "geometry": { "type": "Polygon", "coordinates": [ [ [ 12.3307913, 45.4467281 ], [ 12.3307755, 45.4467325 ], [ 12.3307947, 45.4467635 ], [ 12.3307204, 45.4467861 ], [ 12.3306917, 45.4467389 ], [ 12.3307816, 45.4467121 ], [ 12.3307913, 45.4467281 ] ] ] } },
{ "type": "Feature", "properties": { "geometry_id": 11800 }, "geometry": { "type": "Polygon", "coordinates": [ [ [ 12.3299108, 45.4464239 ], [ 12.3299596, 45.4465097 ], [ 12.3298269, 45.4465481 ], [ 12.3297794, 45.4464631 ], [ 12.3299108, 45.4464239 ] ] ] } },
{ "type": "Feature", "properties": { "geometry_id": 12089 }, "geometry": { "type": "Polygon", "coordinates": [ [ [ 12.3291658, 45.4442192 ], [ 12.3291262, 45.4442275 ], [ 12.3290874, 45.4442364 ], [ 12.3290699, 45.4441928 ], [ 12.3291471, 45.4441773 ], [ 12.3291658, 45.4442192 ] ] ] } },
{ "type": "Feature", "properties": { "geometry_id": 12089 }, "geometry": { "type": "Polygon", "coordinates": [ [ [ 12.3292159, 45.4442088 ], [ 12.3291658, 45.4442192 ], [ 12.3291471, 45.4441773 ], [ 12.3291976, 45.4441662 ], [ 12.3292034, 45.4441793 ], [ 12.3292665, 45.4441654 ], [ 12.3292773, 45.4441864 ], [ 12.3292117, 45.4442011 ], [ 12.3292159, 45.4442088 ] ] ] } },
{ "type": "Feature", "properties": { "geometry_id": 12155 }, "geometry": { "type": "Polygon", "coordinates": [ [ [ 12.3289433, 45.4456472 ], [ 12.3289643, 45.4456831 ], [ 12.3289987, 45.4457483 ], [ 12.3289209, 45.4457603 ], [ 12.3289069, 45.4457288 ], [ 12.3289226, 45.4457246 ], [ 12.3289106, 45.4457025 ], [ 12.3289252, 45.4456986 ], [ 12.3289034, 45.4456584 ], [ 12.3289433, 45.4456472 ] ] ] } },
{ "type": "Feature", "properties": { "geometry_id": 12155 }, "geometry": { "type": "Polygon", "coordinates": [ [ [ 12.3289034, 45.4456584 ], [ 12.3289252, 45.4456986 ], [ 12.3289106, 45.4457025 ], [ 12.3289226, 45.4457246 ], [ 12.3289069, 45.4457288 ], [ 12.3288733, 45.4456669 ], [ 12.3289034, 45.4456584 ] ] ] } },
{ "type": "Feature", "properties": { "geometry_id": 12449 }, "geometry": { "type": "Polygon", "coordinates": [ [ [ 12.3280698, 45.4434774 ], [ 12.3280541, 45.4434794 ], [ 12.3280437, 45.4434382 ], [ 12.3280593, 45.4434362 ], [ 12.3280658, 45.4434614 ], [ 12.3280698, 45.4434774 ] ] ] } },
{ "type": "Feature", "properties": { "geometry_id": 12449 }, "geometry": { "type": "Polygon", "coordinates": [ [ [ 12.3280658, 45.4434614 ], [ 12.3280593, 45.4434362 ], [ 12.3281527, 45.4434192 ], [ 12.3281632, 45.4434461 ], [ 12.3280658, 45.4434614 ] ] ] } },
{ "type": "Feature", "properties": { "geometry_id": 12449 }, "geometry": { "type": "Polygon", "coordinates": [ [ [ 12.3279739, 45.4435198 ], [ 12.3279688, 45.4434998 ], [ 12.3279664, 45.4434903 ], [ 12.3280541, 45.4434794 ], [ 12.3280698, 45.4434774 ], [ 12.3280773, 45.4435068 ], [ 12.3279739, 45.4435198 ] ] ] } },
{ "type": "Feature", "properties": { "geometry_id": 12527 }, "geometry": { "type": "Polygon", "coordinates": [ [ [ 12.3293627, 45.4335296 ], [ 12.3293859, 45.4335117 ], [ 12.3293735, 45.4334976 ], [ 12.3293914, 45.4334786 ], [ 12.3293686, 45.4334608 ], [ 12.3295229, 45.4333156 ], [ 12.3295825, 45.4333474 ], [ 12.3295519, 45.4333845 ], [ 12.3295202, 45.433417 ], [ 12.3294081, 45.4335418 ], [ 12.3293931, 45.4335544 ], [ 12.3293627, 45.4335296 ] ] ] } },
{ "type": "Feature", "properties": { "geometry_id": 12527 }, "geometry": { "type": "Polygon", "coordinates": [ [ [ 12.329547, 45.4334334 ], [ 12.3295672, 45.4334479 ], [ 12.3294436, 45.4335676 ], [ 12.3294081, 45.4335418 ], [ 12.3295202, 45.433417 ], [ 12.329547, 45.4334334 ] ] ] } },
{ "type": "Feature", "properties": { "geometry_id": 12568 }, "geometry": { "type": "Polygon", "coordinates": [ [ [ 12.3265295, 45.4432464 ], [ 12.326467, 45.4431384 ], [ 12.326538, 45.4431171 ], [ 12.3266032, 45.4432242 ], [ 12.3265295, 45.4432464 ] ] ] } },
{ "type": "Feature", "properties": { "geometry_id": 12815 }, "geometry": { "type": "Polygon", "coordinates": [ [ [ 12.3293194, 45.4330086 ], [ 12.3292275, 45.4330932 ], [ 12.3289593, 45.4329483 ], [ 12.3289939, 45.4329126 ], [ 12.3289835, 45.4329089 ], [ 12.3290052, 45.4328854 ], [ 12.3290264, 45.4328653 ], [ 12.3290409, 45.4328729 ], [ 12.3290767, 45.4328389 ], [ 12.3293194, 45.4330086 ] ] ] } },
{ "type": "Feature", "properties": { "geometry_id": 13678 }, "geometry": { "type": "Polygon", "coordinates": [ [ [ 12.3229053, 45.4445787 ], [ 12.3229687, 45.4446375 ], [ 12.3229319, 45.4446536 ], [ 12.3228731, 45.4445944 ], [ 12.3229053, 45.4445787 ] ] ] } },
{ "type": "Feature", "properties": { "geometry_id": 13680 }, "geometry": { "type": "Polygon", "coordinates": [ [ [ 12.3230792, 45.4443938 ], [ 12.3228817, 45.4444671 ], [ 12.3227323, 45.4443112 ], [ 12.3228276, 45.4442729 ], [ 12.3229315, 45.4442333 ], [ 12.3230792, 45.4443938 ] ] ] } },
{ "type": "Feature", "properties": { "geometry_id": 13680 }, "geometry": { "type": "Polygon", "coordinates": [ [ [ 12.3230792, 45.4443938 ], [ 12.3231637, 45.4444825 ], [ 12.3232797, 45.444607 ], [ 12.3230878, 45.4446745 ], [ 12.3228817, 45.4444671 ], [ 12.3230792, 45.4443938 ] ] ] } },
{ "type": "Feature", "properties": { "geometry_id": 13820 }, "geometry": { "type": "Polygon", "coordinates": [ [ [ 12.3234401, 45.4424132 ], [ 12.3235012, 45.4424475 ], [ 12.3234548, 45.4424982 ], [ 12.3233869, 45.4424653 ], [ 12.3234401, 45.4424132 ] ] ] } },
{ "type": "Feature", "properties": { "geometry_id": 13820 }, "geometry": { "type": "Polygon", "coordinates": [ [ [ 12.3236009, 45.4424731 ], [ 12.3235611, 45.4424559 ], [ 12.3235941, 45.4424248 ], [ 12.3236329, 45.4424417 ], [ 12.3236009, 45.4424731 ] ] ] } },
{ "type": "Feature", "properties": { "geometry_id": 13820 }, "geometry": { "type": "Polygon", "coordinates": [ [ [ 12.3238148, 45.4426162 ], [ 12.3237497, 45.4426774 ], [ 12.3237014, 45.4426503 ], [ 12.3237625, 45.4425871 ], [ 12.3237997, 45.4426077 ], [ 12.3238148, 45.4426162 ] ] ] } },
{ "type": "Feature", "properties": { "geometry_id": 13820 }, "geometry": { "type": "Polygon", "coordinates": [ [ [ 12.3232158, 45.4427385 ], [ 12.3234238, 45.4425367 ], [ 12.32344, 45.4425393 ], [ 12.3234565, 45.4425241 ], [ 12.3236028, 45.4425943 ], [ 12.323505, 45.4426971 ], [ 12.3233785, 45.4428247 ], [ 12.3232158, 45.4427385 ] ] ] } },
{ "type": "Feature", "properties": { "geometry_id": 13820 }, "geometry": { "type": "Polygon", "coordinates": [ [ [ 12.3233869, 45.4424653 ], [ 12.3234548, 45.4424982 ], [ 12.3235012, 45.4424475 ], [ 12.3234401, 45.4424132 ], [ 12.3235653, 45.4422997 ], [ 12.3238731, 45.4424748 ], [ 12.3237625, 45.4425871 ], [ 12.3237014, 45.4426503 ], [ 12.3237497, 45.4426774 ], [ 12.3237028, 45.4427254 ], [ 12.323675, 45.4427531 ], [ 12.3236105, 45.4428178 ], [ 12.3235905, 45.4428354 ], [ 12.3235212, 45.4429007 ], [ 12.3234622, 45.4428691 ], [ 12.3235945, 45.4427442 ], [ 12.323505, 45.4426971 ], [ 12.3236028, 45.4425943 ], [ 12.3234565, 45.4425241 ], [ 12.32344, 45.4425393 ], [ 12.3234238, 45.4425367 ], [ 12.3232158, 45.4427385 ], [ 12.3231498, 45.442704 ], [ 12.3232323, 45.4426183 ], [ 12.3233756, 45.4424737 ], [ 12.3233869, 45.4424653 ] ], [ [ 12.3236009, 45.4424731 ], [ 12.3236329, 45.4424417 ], [ 12.3235941, 45.4424248 ], [ 12.3235611, 45.4424559 ], [ 12.3236009, 45.4424731 ] ] ] } },
{ "type": "Feature", "properties": { "geometry_id": 14204 }, "geometry": { "type": "Polygon", "coordinates": [ [ [ 12.3528331, 45.4325619 ], [ 12.3528396, 45.4325361 ], [ 12.3528633, 45.4325404 ], [ 12.3528582, 45.4325644 ], [ 12.3528331, 45.4325619 ] ] ] } },
{ "type": "Feature", "properties": { "geometry_id": 14204 }, "geometry": { "type": "Polygon", "coordinates": [ [ [ 12.352986, 45.4325845 ], [ 12.3528582, 45.4325644 ], [ 12.3528633, 45.4325404 ], [ 12.3528396, 45.4325361 ], [ 12.352845, 45.4325071 ], [ 12.3528788, 45.4325113 ], [ 12.3530017, 45.4325337 ], [ 12.352986, 45.4325845 ] ] ] } },
{ "type": "Feature", "properties": { "geometry_id": 14866 }, "geometry": { "type": "Polygon", "coordinates": [ [ [ 12.3342276, 45.438524 ], [ 12.3342489, 45.438541 ], [ 12.3342355, 45.438552 ], [ 12.3342168, 45.4385648 ], [ 12.3341647, 45.4386024 ], [ 12.3341498, 45.4385863 ], [ 12.3342276, 45.438524 ] ] ] } },
{ "type": "Feature", "properties": { "geometry_id": 15003 }, "geometry": { "type": "Polygon", "coordinates": [ [ [ 12.3336682, 45.4380378 ], [ 12.3336453, 45.4380631 ], [ 12.3336374, 45.4380593 ], [ 12.3336237, 45.4380764 ], [ 12.3336067, 45.4380951 ], [ 12.333547, 45.4380671 ], [ 12.3336117, 45.437995 ], [ 12.3336794, 45.4380241 ], [ 12.3336682, 45.4380378 ] ] ] } },
{ "type": "Feature", "properties": { "geometry_id": 15133 }, "geometry": { "type": "Polygon", "coordinates": [ [ [ 12.3322744, 45.4381505 ], [ 12.3322892, 45.4381391 ], [ 12.3322765, 45.438131 ], [ 12.3322961, 45.4381159 ], [ 12.3323395, 45.4381437 ], [ 12.3323847, 45.4381726 ], [ 12.3323615, 45.4381905 ], [ 12.3323178, 45.4381626 ], [ 12.3323067, 45.4381712 ], [ 12.3322931, 45.4381625 ], [ 12.3322744, 45.4381505 ] ] ] } },
{ "type": "Feature", "properties": { "geometry_id": 15133 }, "geometry": { "type": "Polygon", "coordinates": [ [ [ 12.3323615, 45.4381905 ], [ 12.3323493, 45.4382053 ], [ 12.3323674, 45.4382179 ], [ 12.3322563, 45.4382861 ], [ 12.3322109, 45.4382744 ], [ 12.3323197, 45.4381815 ], [ 12.3323067, 45.4381712 ], [ 12.3323178, 45.4381626 ], [ 12.3323615, 45.4381905 ] ] ] } },
{ "type": "Feature", "properties": { "geometry_id": 15156 }, "geometry": { "type": "Polygon", "coordinates": [ [ [ 12.3329307, 45.4377074 ], [ 12.332957, 45.4376847 ], [ 12.3330046, 45.4377081 ], [ 12.3329798, 45.4377316 ], [ 12.3329307, 45.4377074 ] ] ] } },
{ "type": "Feature", "properties": { "geometry_id": 15156 }, "geometry": { "type": "Polygon", "coordinates": [ [ [ 12.3328376, 45.4377329 ], [ 12.3328697, 45.4377021 ], [ 12.3329261, 45.437649 ], [ 12.3329186, 45.4376444 ], [ 12.3329295, 45.4376333 ], [ 12.3329704, 45.4376548 ], [ 12.3330217, 45.4376807 ], [ 12.3331154, 45.4377311 ], [ 12.3329916, 45.4378162 ], [ 12.3328376, 45.4377329 ] ], [ [ 12.3329307, 45.4377074 ], [ 12.3329798, 45.4377316 ], [ 12.3330046, 45.4377081 ], [ 12.332957, 45.4376847 ], [ 12.3329307, 45.4377074 ] ] ] } },
{ "type": "Feature", "properties": { "geometry_id": 15196 }, "geometry": { "type": "Polygon", "coordinates": [ [ [ 12.3323372, 45.437693 ], [ 12.3322918, 45.4376664 ], [ 12.3323344, 45.4376121 ], [ 12.3323881, 45.4376356 ], [ 12.3323372, 45.437693 ] ] ] } },
{ "type": "Feature", "properties": { "geometry_id": 15212 }, "geometry": { "type": "Polygon", "coordinates": [ [ [ 12.332662, 45.4372918 ], [ 12.3326882, 45.4372612 ], [ 12.3327544, 45.4372841 ], [ 12.3327262, 45.4373185 ], [ 12.332662, 45.4372918 ] ] ] } },
{ "type": "Feature", "properties": { "geometry_id": 15340 }, "geometry": { "type": "Polygon", "coordinates": [ [ [ 12.3313158, 45.4367845 ], [ 12.3313585, 45.436716 ], [ 12.3314324, 45.4367399 ], [ 12.3314675, 45.4366935 ], [ 12.3315337, 45.4367136 ], [ 12.3316024, 45.4367374 ], [ 12.3315259, 45.4368524 ], [ 12.3313158, 45.4367845 ] ], [ [ 12.3314414, 45.4368031 ], [ 12.3314574, 45.4367741 ], [ 12.3314208, 45.4367638 ], [ 12.3314025, 45.4367893 ], [ 12.3314414, 45.4368031 ] ] ] } },
{ "type": "Feature", "properties": { "geometry_id": 15340 }, "geometry": { "type": "Polygon", "coordinates": [ [ [ 12.3314414, 45.4368031 ], [ 12.3314025, 45.4367893 ], [ 12.3314208, 45.4367638 ], [ 12.3314574, 45.4367741 ], [ 12.3314414, 45.4368031 ] ] ] } },
{ "type": "Feature", "properties": { "geometry_id": 15442 }, "geometry": { "type": "Polygon", "coordinates": [ [ [ 12.3327411, 45.438384 ], [ 12.3327066, 45.4384132 ], [ 12.3326863, 45.4384299 ], [ 12.3326698, 45.4384167 ], [ 12.3327309, 45.4383764 ], [ 12.3327411, 45.438384 ] ] ] } },
{ "type": "Feature", "properties": { "geometry_id": 15479 }, "geometry": { "type": "Polygon", "coordinates": [ [ [ 12.3356734, 45.4329079 ], [ 12.3356246, 45.4329016 ], [ 12.3356386, 45.4328472 ], [ 12.3357266, 45.4328569 ], [ 12.3357342, 45.4328664 ], [ 12.3357923, 45.4328794 ], [ 12.33579, 45.4329007 ], [ 12.3357261, 45.4328966 ], [ 12.3357241, 45.4329122 ], [ 12.3356734, 45.4329079 ] ] ] } },
{ "type": "Feature", "properties": { "geometry_id": 15479 }, "geometry": { "type": "Polygon", "coordinates": [ [ [ 12.33579, 45.4329007 ], [ 12.3357877, 45.4329195 ], [ 12.335742, 45.4329164 ], [ 12.3357236, 45.432915 ], [ 12.3357241, 45.4329122 ], [ 12.3357261, 45.4328966 ], [ 12.33579, 45.4329007 ] ] ] } },
{ "type": "Feature", "properties": { "geometry_id": 15526 }, "geometry": { "type": "Polygon", "coordinates": [ [ [ 12.3315935, 45.4388415 ], [ 12.3316418, 45.4388864 ], [ 12.3316556, 45.4389017 ], [ 12.3316084, 45.4389229 ], [ 12.3315804, 45.4388969 ], [ 12.3315469, 45.4388658 ], [ 12.3315935, 45.4388415 ] ] ] } },
{ "type": "Feature", "properties": { "geometry_id": 15540 }, "geometry": { "type": "Polygon", "coordinates": [ [ [ 12.331286, 45.4386586 ], [ 12.3312216, 45.4386889 ], [ 12.3311782, 45.4386413 ], [ 12.3312529, 45.4386199 ], [ 12.331286, 45.4386586 ] ] ] } },
{ "type": "Feature", "properties": { "geometry_id": 15603 }, "geometry": { "type": "Polygon", "coordinates": [ [ [ 12.3326011, 45.439314 ], [ 12.3326802, 45.4392679 ], [ 12.3327044, 45.4392884 ], [ 12.3327633, 45.439254 ], [ 12.332829, 45.4392129 ], [ 12.3328167, 45.4392021 ], [ 12.3328049, 45.4392087 ], [ 12.3327878, 45.4391937 ], [ 12.3327301, 45.4392259 ], [ 12.3327089, 45.439208 ], [ 12.3328847, 45.4391066 ], [ 12.3330119, 45.4392013 ], [ 12.3329536, 45.4392306 ], [ 12.3329349, 45.4392404 ], [ 12.332896, 45.4392038 ], [ 12.3328121, 45.4392504 ], [ 12.3327906, 45.4392869 ], [ 12.3327059, 45.4393373 ], [ 12.3326911, 45.4393364 ], [ 12.3326557, 45.4393579 ], [ 12.3326011, 45.439314 ] ] ] } },
{ "type": "Feature", "properties": { "geometry_id": 15603 }, "geometry": { "type": "Polygon", "coordinates": [ [ [ 12.3327301, 45.4392259 ], [ 12.3327878, 45.4391937 ], [ 12.3328049, 45.4392087 ], [ 12.3328167, 45.4392021 ], [ 12.332829, 45.4392129 ], [ 12.3327633, 45.439254 ], [ 12.3327301, 45.4392259 ] ] ] } },
{ "type": "Feature", "properties": { "geometry_id": 15678 }, "geometry": { "type": "Polygon", "coordinates": [ [ [ 12.3338784, 45.4391925 ], [ 12.3338216, 45.4391409 ], [ 12.3338725, 45.4391155 ], [ 12.3339282, 45.4391668 ], [ 12.3338784, 45.4391925 ] ] ] } },
{ "type": "Feature", "properties": { "geometry_id": 15861 }, "geometry": { "type": "Polygon", "coordinates": [ [ [ 12.320451, 45.4447252 ], [ 12.3204111, 45.4447511 ], [ 12.3203197, 45.4446816 ], [ 12.3203571, 45.444656 ], [ 12.320451, 45.4447252 ] ] ] } },
{ "type": "Feature", "properties": { "geometry_id": 15861 }, "geometry": { "type": "Polygon", "coordinates": [ [ [ 12.3203197, 45.4446816 ], [ 12.3204111, 45.4447511 ], [ 12.3203552, 45.4447875 ], [ 12.3202625, 45.4447162 ], [ 12.3203197, 45.4446816 ] ] ] } },
{ "type": "Feature", "properties": { "geometry_id": 15861 }, "geometry": { "type": "Polygon", "coordinates": [ [ [ 12.3200741, 45.4450465 ], [ 12.3199258, 45.4449228 ], [ 12.3201023, 45.4448133 ], [ 12.3202509, 45.4449311 ], [ 12.3200741, 45.4450465 ] ] ] } },
{ "type": "Feature", "properties": { "geometry_id": 15861 }, "geometry": { "type": "Polygon", "coordinates": [ [ [ 12.3197558, 45.4448233 ], [ 12.319584, 45.4446836 ], [ 12.3197953, 45.4445536 ], [ 12.3199504, 45.4446886 ], [ 12.3197558, 45.4448233 ] ] ] } },
{ "type": "Feature", "properties": { "geometry_id": 15861 }, "geometry": { "type": "Polygon", "coordinates": [ [ [ 12.3199877, 45.4448391 ], [ 12.319862, 45.4449207 ], [ 12.3200718, 45.4450941 ], [ 12.3200799, 45.445101 ], [ 12.3199284, 45.4452096 ], [ 12.3197812, 45.4450712 ], [ 12.3194435, 45.4447963 ], [ 12.3195629, 45.4447206 ], [ 12.3197521, 45.4448742 ], [ 12.3198754, 45.4447926 ], [ 12.320014, 45.4446942 ], [ 12.3197975, 45.444506 ], [ 12.3195166, 45.4446814 ], [ 12.3193902, 45.4447493 ], [ 12.3192488, 45.4446289 ], [ 12.3193147, 45.4445886 ], [ 12.3194016, 45.4446605 ], [ 12.3195797, 45.4445466 ], [ 12.3195683, 45.4445328 ], [ 12.319587, 45.4445204 ], [ 12.3196075, 45.4445327 ], [ 12.3197783, 45.4444225 ], [ 12.319747, 45.4443989 ], [ 12.319902, 45.4442978 ], [ 12.3199356, 45.444328 ], [ 12.3199984, 45.4443779 ], [ 12.3198998, 45.4444391 ], [ 12.3199951, 45.4445148 ], [ 12.319966, 45.4445392 ], [ 12.3202155, 45.4447416 ], [ 12.3202625, 45.4447162 ], [ 12.3203552, 45.4447875 ], [ 12.3203129, 45.444815 ], [ 12.3203948, 45.4448769 ], [ 12.3203783, 45.4448896 ], [ 12.3203149, 45.4449298 ], [ 12.3201058, 45.4447666 ], [ 12.3199877, 45.4448391 ] ] ] } },
{ "type": "Feature", "properties": { "geometry_id": 15861 }, "geometry": { "type": "Polygon", "coordinates": [ [ [ 12.3195166, 45.4446814 ], [ 12.3197975, 45.444506 ], [ 12.320014, 45.4446942 ], [ 12.3198754, 45.4447926 ], [ 12.3197521, 45.4448742 ], [ 12.3195629, 45.4447206 ], [ 12.3195166, 45.4446814 ] ], [ [ 12.3197558, 45.4448233 ], [ 12.3199504, 45.4446886 ], [ 12.3197953, 45.4445536 ], [ 12.319584, 45.4446836 ], [ 12.3197558, 45.4448233 ] ] ] } },
{ "type": "Feature", "properties": { "geometry_id": 15861 }, "geometry": { "type": "Polygon", "coordinates": [ [ [ 12.3203149, 45.4449298 ], [ 12.3200718, 45.4450941 ], [ 12.319862, 45.4449207 ], [ 12.3199877, 45.4448391 ], [ 12.3201058, 45.4447666 ], [ 12.3203149, 45.4449298 ] ], [ [ 12.3200741, 45.4450465 ], [ 12.3202509, 45.4449311 ], [ 12.3201023, 45.4448133 ], [ 12.3199258, 45.4449228 ], [ 12.3200741, 45.4450465 ] ] ] } }
]
}
