{
  "type": "FeatureCollection",
  "features": [
    {
      "type": "Feature",
      "geometry": {
        "type": "Point",
        "coordinates": [
          6.638716666666666,
          46.52093333333333
        ]
      },
      "properties": {
        "name": "Swiss Chocolate by Fassbind Lausanne",
        "dates": "10.7./11.7.24, 16.12./17.12.24",
        "comment_de": "In einer Seitengasse gelegen mit Blick auf ruhigen Hof. Ein Schokoladenstück ist mitinbegriffen. Gerüchten zufolge soll es auch einen Schokoladen-Brunnen geben; diesen habe ich aber nicht gesehen.",
        "photo_comment_de": "So sieht es im Fahrstuhl aus",
        "comment_en": "Located in a side street with a quiet courtyard. A piece of chocolate is offered as a gift. There is some rumour about a chocolate fountain, but I didn't see it.",
        "photo_comment_en": "The inside of the lift",
        "photo_name": "13.JPG"
      }
    },
    {
      "type": "Feature",
      "geometry": {
        "type": "Point",
        "coordinates": [
          6.566166666666667,
          46.522283333333334
        ]
      },
      "properties": {
        "name": "SwissTech Hotel",
        "dates": "30.4./1.5.24, 25.11./26.11.24, 6.1./7.1.25",
        "comment_de": "Direkt auf dem EPFL-Campus gelegen. Das einzige Hotel, das online die Lausanne Transport Card vor der Anreise ausstellt. Die Deckenbeleuchtung ist sehr einschläfernd. In einigen Zimmern blickt man auf den Metro-Betriebshof.",
        "photo_comment_de": "Karte vom Campus",
        "comment_en": "Located directly on the EPFL campus. The only hotel that issues the Lausanne Transport Card online beforehand. The ceiling lighting is very soporific. Some rooms face the metro depot.",
        "photo_comment_en": "Map of the campus",
        "photo_name": "4.JPG"
      }
    },
    {
      "type": "Feature",
      "geometry": {
        "type": "Point",
        "coordinates": [
          6.620866666666666,
          46.52845
        ]
      },
      "properties": {
        "name": "Tulip Inn",
        "dates": "28.4./29.4.25",
        "comment_de": "Man bekam die Lausanne Transport Card gleich mit den Schlüsseln. Der Check-Out dauerte aufgrund nicht anwesenden Personals ein paar Minuten länger.",
        "photo_comment_de": "Ein frisch renoviertes Zimmer",
        "comment_en": "The Lausanne Transport Card is given rightaway along with the keys. Check-out took a few minutes longer due to staff being absent.",
        "photo_comment_en": "A newly renovated room",
        "photo_name": "22.JPG"
      }
    },
    {
      "type": "Feature",
      "geometry": {
        "type": "Point",
        "coordinates": [
          6.630816666666666,
          46.5229
        ]
      },
      "properties": {
        "name": "Hôtel Crystal",
        "dates": "6.5./7.5.24, 10.2./11.2.25, 24.2./25.2.25, 3.3./4.3.25, 5.5./6.5.25, 27.5./28.5.25, 16.6./17.6.25, 22.9./23.9.25",
        "comment_de": "Konnte gut schlafen, da die Bettmatratzen sehr bequem sind. Schöne Aussicht vom obersten Stock. Im Sommer sehr warm.",
        "photo_comment_de": "Blick auf Innenstadt von der Sentier de Colombes",
        "comment_en": "I slept well because the mattresses are extremely comfortable. Beautiful view from the top floor. Very warm in summer.",
        "photo_comment_en": "View of the city centre from the Sentier de Colombes",
        "photo_name": "5.JPG"
      }
    },
    {
      "type": "Feature",
      "geometry": {
        "type": "Point",
        "coordinates": [
          6.62305,
          46.51708333333333
        ]
      },
      "properties": {
        "name": "VISIONAPARTMENTS Chemin des Epinettes - contactless check-in",
        "dates": "16.4./17.4.24, 4.11./5.11.24, 5.11./6.11.24",
        "comment_de": "Man bekommt ein grosse Spül- und Duschmittel. An beiden Übernachtungsterminen hat Borussia Dortmund (mein Lieblingsfußballverein) in der Champions-League gewonnen. Viele digitale Tagelöhner übernachten dort. Leider gibt es keine Lausanne Transport Card dort.",
        "photo_comment_de": "Blick aus dem Hotelfenster",
        "comment_en": "One gets a large bottle of washing-up liquid and shower gel. Borussia Dortmund (my favourite football team) won in the Champions League on both nights I stayed there. Many digital day labourers stay there. Unfortunately, they don't offer the Lausanne Transport Card.",
        "photo_comment_en": "View from the hotel window",
        "photo_name": "2.JPG"
      }
    },
    {
      "type": "Feature",
      "geometry": {
        "type": "Point",
        "coordinates": [
          6.614183333333333,
          46.51591666666667
        ]
      },
      "properties": {
        "name": "Hôtel Bellerive ",
        "dates": "12.8./13.8.25",
        "comment_de": "Ich hatte ein Zimmer mit schönem Seeblick.",
        "photo_comment_de": "Blick auf den Genfer See",
        "comment_en": "I had a room with a beautiful view of the lake.",
        "photo_comment_en": "View of Lake Geneva",
        "photo_name": "23.JPG"
      }
    },
    {
      "type": "Feature",
      "geometry": {
        "type": "Point",
        "coordinates": [
          6.631316666666667,
          46.51815
        ]
      },
      "properties": {
        "name": "Elite",
        "dates": "30.7./31.7.24",
        "comment_de": "Sehr nahe in einer kleinen Gasse am Hauptbahnhof gelegen.",
        "photo_comment_de": "Altehrwürdiges Zimmer mit schönen Blick auf dem See",
        "comment_en": "Located very close to the main station in a small alley.",
        "photo_comment_en": "Time-honoured room with a beautiful view of the lake",
        "photo_name": "15.JPG"
      }
    },
    {
      "type": "Feature",
      "geometry": {
        "type": "Point",
        "coordinates": [
          6.685466666666667,
          46.50201666666667
        ]
      },
      "properties": {
        "name": "Rivage Hotel Restaurant Lutry",
        "dates": "11.11./12.11.24, 2.12./3.12.24, 10.3./11.3.25, 18.3./19.3.25, 24.3./25.3.25",
        "comment_de": "Sehr ruhige Innenstadt abends und nettes Personal. Beim ersten Mal hat der elektronische Schlüssel nicht richtig funktioniert. Die laute Belüftung wurde zum Glück irgendwann abgeschaltet. ",
        "photo_comment_de": "Der nahegelegene Hafen",
        "comment_en": "Very quiet town centre in the evening and nice staff. The electronic key didn't work properly the first time. Fortunately, the loud ventilation was turned off at some point. ",
        "photo_comment_en": "The nearby harbour",
        "photo_name": "21.JPG"
      }
    },
    {
      "type": "Feature",
      "geometry": {
        "type": "Point",
        "coordinates": [
          6.604916666666667,
          46.584066666666665
        ]
      },
      "properties": {
        "name": "Galion Hôtel & Restaurant",
        "dates": "4.6./5.6.24",
        "comment_de": "In einem Vorort gelegen, den man gut mit einem Bus erreichen kann. Es gibt noch ein Restaurant, aber es war nicht laut.",
        "photo_comment_de": "Sonnenuntergang an einem warmen Abend",
        "comment_en": "Located in a suburb that is easily accessible by bus. There is also a restaurant, but it wasn't noisy.",
        "photo_comment_en": "Sunset on a warm evening",
        "photo_name": "9.JPG"
      }
    },
    {
      "type": "Feature",
      "geometry": {
        "type": "Point",
        "coordinates": [
          6.843833333333333,
          46.462466666666664
        ]
      },
      "properties": {
        "name": "VISIONAPARTMENTS Vevey",
        "dates": "2.2./3.2.25, 3.2./4.2.25, 25.6./26.6.25, 26.6./27.6.25, 15.9./16.9.25, 16.9./17.9.25",
        "comment_de": "Direkt am Bahnhof, aber mit schallisolierten Fenstern, daher sehr ruhig.",
        "photo_comment_de": "Blick auf Mont-Pélerin",
        "comment_en": "Right next to the station, but with soundproof windows, so very quiet.",
        "photo_comment_en": "View of Mont-Pélerin",
        "photo_name": "24.JPG"
      }
    },
    {
      "type": "Feature",
      "geometry": {
        "type": "Point",
        "coordinates": [
          6.342366666666667,
          46.46386666666667
        ]
      },
      "properties": {
        "name": "Queen Guest Room",
        "dates": "27.8./28.8.24",
        "comment_de": "Gut ausgebautes Dachgeschoss mit Blick auf Weinreben. Die Vermieterin ist die Queen des Hauses.",
        "photo_comment_de": "War abends noch eine Runde schwimmen, hatte leider ein paar Algen dort",
        "comment_en": "Well-appointed attic with a view of vineyards. The landlady is the queen of the house.",
        "photo_comment_en": "Went for a swim in the evening, but unfortunately there was some algae there",
        "photo_name": "16.JPG"
      }
    },
    {
      "type": "Feature",
      "geometry": {
        "type": "Point",
        "coordinates": [
          6.6386666666666665,
          46.52158333333333
        ]
      },
      "properties": {
        "name": "VISIONAPARTMENTS Rue Caroline",
        "dates": "21.1./22.1.25, 22.1./23.1.25",
        "comment_de": "Der Fahrstuhl war defekt, als ich ankam.",
        "photo_comment_de": "Schöner Blick auf die Kathedrale und den See",
        "comment_en": "The lift was out of order when I arrived.",
        "photo_comment_en": "Beautiful view of the cathedral and the lake",
        "photo_name": "25.JPG"
      }
    },
    {
      "type": "Feature",
      "geometry": {
        "type": "Point",
        "coordinates": [
          6.315566666666666,
          46.46715
        ]
      },
      "properties": {
        "name": "La Tourelle",
        "dates": "24.9./25.9.24",
        "comment_de": "An einem Weinberg gelegen und man kann sogar Wein kaufen. Das Apartment ist separat vom Haus der Vermieter gelegen.",
        "photo_comment_de": "Beim Spaziergang im Weinberg sah ich einen Campingwagen aus Berlin",
        "comment_en": "Located next to a vineyard and one can even buy wine. The flat is separate from the landlords' house.",
        "photo_comment_en": "While walking in the vineyard, I saw a camper van from Berlin",
        "photo_name": "17.JPG"
      }
    },
    {
      "type": "Feature",
      "geometry": {
        "type": "Point",
        "coordinates": [
          6.606233333333334,
          46.56345
        ]
      },
      "properties": {
        "name": "Hotel Adore",
        "dates": "24.6./25.6.24, 30.10./31.10.25",
        "comment_de": "Der Besitzer hat mich vor lauter Pizza backen an der Rezeption vergessen. Das Zimmer war aber gut und ruhig. Beim zweiten Mal war die Klobrille beschädigt. Keine Lausanne Transport Card.",
        "photo_comment_de": "In der Nähe gab es einen kleinen Park mit See",
        "comment_en": "The owner forgot about me at reception because he was busy baking pizzas. But the room was good and quiet. The second time, the toilet seat was damaged. No Lausanne Transport Card.",
        "photo_comment_en": "There was a small park with a lake nearby",
        "photo_name": "12.JPG"
      }
    },
    {
      "type": "Feature",
      "geometry": {
        "type": "Point",
        "coordinates": [
          6.6301,
          46.51841666666667
        ]
      },
      "properties": {
        "name": "Alpha by Fassbind",
        "dates": "24.7./25.7.24",
        "comment_de": "Der Check-In dauerte ziemliche lange aufgrund von anderen Gästen. Zimmer war leider nahe an der Eingangshalle, die nicht durch Türen abgetrennt ist.",
        "photo_comment_de": "Ein erstaunliche Terasse mit einem schönen Blick auf den See",
        "comment_en": "Check-in took quite a long time due to other guests. Unfortunately, the room was close to the entrance hall, which is not separated by doors.",
        "photo_comment_en": "An amazing terrace with a beautiful view of the lake",
        "photo_name": "14.JPG"
      }
    },
    {
      "type": "Feature",
      "geometry": {
        "type": "Point",
        "coordinates": [
          6.466033333333334,
          46.362766666666666
        ]
      },
      "properties": {
        "name": "ibis budget Thonon Les Bains",
        "dates": "18.5./19.5.25, 19.5./20.5.25",
        "comment_de": "Super günstig. Ruhig, aber recht entfernt vom Stadtzentrum",
        "photo_comment_de": "Blick vom Parc du Belvédère",
        "comment_en": "Super cheap. Quiet, but quite far from the city centre.",
        "photo_comment_en": "View from the Parc du Belvédère",
        "photo_name": "26.JPG"
      }
    },
    {
      "type": "Feature",
      "geometry": {
        "type": "Point",
        "coordinates": [
          6.588266666666667,
          46.40031666666667
        ]
      },
      "properties": {
        "name": "Hôtel Continental",
        "dates": "7.10./8.10.24",
        "comment_de": "Die Preise sind viel niedriger als in Lausanne, dafür ist aber eine Seeüberfahrt nötig. Hatte einen Schreck bei der Kurtaxe bekommen, da ich sie erst nicht richtig verstanden hatte, aber es waren nur 90 Cent.",
        "photo_comment_de": "Zimmer mit klassischem Flair",
        "comment_en": "The prices are much lower than in Lausanne, but you have to cross the lake to get there. I was first shocked since I misunderstood the tourist tax, but it was only 90 cents.",
        "photo_comment_en": "Room with classic flair",
        "photo_name": "19.JPG"
      }
    },
    {
      "type": "Feature",
      "geometry": {
        "type": "Point",
        "coordinates": [
          6.4093333333333335,
          46.47465
        ]
      },
      "properties": {
        "name": "Eh!Toi Self Motel",
        "dates": "18.6./19.6.24",
        "comment_de": "Es ist wirklich eine Art Motel an einer befahrenen Strasse. Man bekommt grosszügig gratis Verpflegung. Richtung See wohnen scheinbar reiche Leute mit grossen Anwesen.",
        "photo_comment_de": "Weiter unten gab es einen kleinen Strand, aber ich war nicht baden",
        "comment_en": "It's really a kind of motel on a busy road. You get generous snacks for free. Towards the lake, there seem to be rich people living in large estates.",
        "photo_comment_en": "There was a small beach further down, but I did not go swimming",
        "photo_name": "11.JPG"
      }
    },
    {
      "type": "Feature",
      "geometry": {
        "type": "Point",
        "coordinates": [
          6.731483333333333,
          46.48781666666667
        ]
      },
      "properties": {
        "name": "Au Major Davel",
        "dates": "14.5./15.5.24",
        "comment_de": "Sehr grosszüges Zimmer und recht vornehm. Leider wurde morgens im Hafen gerade gebaut.",
        "photo_comment_de": "Bei meiner Ankunft hat es ziemlich geregnet",
        "comment_en": "Very spacious room and quite elegant. Unfortunately, there was construction work going on in the harbour in the morning.",
        "photo_comment_en": "It rained quite heavily when I arrived",
        "photo_name": "6.JPG"
      }
    },
    {
      "type": "Feature",
      "geometry": {
        "type": "Point",
        "coordinates": [
          6.633,
          46.522016666666666
        ]
      },
      "properties": {
        "name": "Hôtel du Raisin",
        "dates": "21.5./22.5.24",
        "comment_de": "War im obersten Stock und hatte Blick auf eine schöne Turmuhr, die ziemlich laut geschlagen hat.",
        "photo_comment_de": "Abendspaziergang in der Nähe der Kathedrale",
        "comment_en": "Was on the top floor and had a view of a beautiful tower clock that chimed quite loudly.",
        "photo_comment_en": "Evening walk near the cathedral",
        "photo_name": "7.JPG"
      }
    },
    {
      "type": "Feature",
      "geometry": {
        "type": "Point",
        "coordinates": [
          6.561766666666667,
          46.54815
        ]
      },
      "properties": {
        "name": "Ibis budget Lausanne-Bussigny",
        "dates": "16.10./17.10.24, 18.11./19.11.24, 9.12./10.12.24, 2.4./3.4.25, 22.7./23.7.25, 29.7./30.7.25, 26.11./27.11.25",
        "comment_de": "Meist die günstigste Option. An einer sehr befahreren Kreuzung gelegen, die Fenster sind aber mehr oder weniger isoliert. Anfahrt mit Bus ist ok. Obere Stockwerke empfehlenswert.",
        "photo_comment_de": "Die Kreuzung von oben",
        "comment_en": "Usually the cheapest option. Located at a very busy intersection, but the windows are more or less soundproof. Access by bus is okay. Upper floors are recommended.",
        "photo_comment_en": "The intersection from above",
        "photo_name": "20.JPG"
      }
    },
    {
      "type": "Feature",
      "geometry": {
        "type": "Point",
        "coordinates": [
          6.65675,
          46.76725
        ]
      },
      "properties": {
        "name": "Hôtel Maison Blanche",
        "dates": "12.5./13.5.25",
        "comment_de": "Recht entfernt vom Bahnhof in Yverdon. Ausstattung ist eher alt.",
        "photo_comment_de": "Liegender Ameisenbär-Brunnen",
        "comment_en": "Quite far from the train station in Yverdon. The furnishings are rather old.",
        "photo_comment_en": "Lying anteater fountain",
        "photo_name": "27.JPG"
      }
    },
    {
      "type": "Feature",
      "geometry": {
        "type": "Point",
        "coordinates": [
          6.842883333333333,
          46.45965
        ]
      },
      "properties": {
        "name": "Hostellerie de Genève",
        "dates": "8.9./9.9.25",
        "comment_de": "Nebenan war eine laute Klimaanlage oder Motor, die zum Glück später abgeschaltet wurde. Sehr einfaches Zimmer.",
        "photo_comment_de": "War ein verregneter Morgen, daher kein Foto",
        "comment_en": "There was a loud air conditioner or motor next door, which fortunately was turned off later. Very simple room.",
        "photo_comment_en": "It was a rainy morning, so no photo",
        "photo_name": "29.JPG"
      }
    },
    {
      "type": "Feature",
      "geometry": {
        "type": "Point",
        "coordinates": [
          6.6854,
          46.52753333333333
        ]
      },
      "properties": {
        "name": "Joli studio avec terrasse et vue EXCLUSIVEMENT POUR NON FUMEURS",
        "dates": "11.6./12.6.24, 29.9./30.9.25",
        "comment_de": "Zur nächsten Bushaltestelle sind es ca. 15 Minuten zu Fuss. Abends sehr dunkler Weg. Der Vermieter war nett und betonte nochmals das Rauchverbot. Man sieht und hört die Autobahn.",
        "photo_comment_de": "Regenguss im Sonnenuntergang",
        "comment_en": "It's about a 15-minute walk to the nearest bus stop. The path is very dark in the evening. The landlord was nice and emphasised the smoking ban again. You can see and hear the motorway.",
        "photo_comment_en": "Rain shower at sunset",
        "photo_name": "10.JPG"
      }
    },
    {
      "type": "Feature",
      "geometry": {
        "type": "Point",
        "coordinates": [
          6.8521,
          46.471383333333335
        ]
      },
      "properties": {
        "name": "Hotel Abaca",
        "dates": "30.9./1.10.24",
        "comment_de": "Wer macht ein rotes LED-Licht, wenn die Tür geöffnet wurde!? Einfaches Zimmer, aber mit Aussicht",
        "photo_comment_de": "Blick auf Vevey",
        "comment_en": "Who turns on a red LED light when the door is opened!? Simple room, but with a view.",
        "photo_comment_en": "View of Vevey",
        "photo_name": "18.JPG"
      }
    },
    {
      "type": "Feature",
      "geometry": {
        "type": "Point",
        "coordinates": [
          6.45905,
          46.517583333333334
        ]
      },
      "properties": {
        "name": "B&B Château de Denens",
        "dates": "28.5./29.5.24",
        "comment_de": "Recht lange Anfahrt. Zimmer ist in einem Nebentrakt von einem Schloss. Habe mit den Vermietern gefrühstückt und meine Französischkenntnisse erprobt. Gemeinschaftsbad mit einer anderen Partei.",
        "photo_comment_de": "Die Pollen haben dermassen gekickt, daher kein Foto",
        "comment_en": "Quite a long journey. The room is in a side wing of a castle. I had breakfast with the landlords and tested my French skills. Shared bathroom with another party.",
        "photo_comment_en": "The pollen was so bad, so no photo",
        "photo_name": "8.JPG"
      }
    },
    {
      "type": "Feature",
      "geometry": {
        "type": "Point",
        "coordinates": [
          6.529,
          46.734516666666664
        ]
      },
      "properties": {
        "name": "Hôtel des Mosaiques",
        "dates": "7.7./8.7.25",
        "comment_de": "Sehr abseits gelegen. Unpersönlicher Video-Check-In. Schimmel an der Fensterwand. Das Dorf ist an sich nett.",
        "photo_comment_de": "Das Hotel von aussen",
        "comment_en": "Very remote location. Impersonal video check-in. Mould on the window wall. The village itself is nice.",
        "photo_comment_en": "The hotel from the outside",
        "photo_name": "28.JPG"
      }
    },
    {
      "type": "Feature",
      "geometry": {
        "type": "Point",
        "coordinates": [
          6.56355,
          46.52891666666667
        ]
      },
      "properties": {
        "name": "Individual house free parking wifi Netflix Disney next to EPFL Lausanne",
        "dates": "2.4./3.4.24, 3.4./4.4.24, 4.4./5.4.24, 5.4./6.4.24, 6.4./7.4.24, 7.4./8.4.24, 8.4./9.4.24",
        "comment_de": "Ein Häuschen mit schönem Garten und Netflix, dafür sehr hellhörig und überraschenderweise drei andere Mitbewohner. Nur 20min zu Fuss zur EPFL.",
        "photo_comment_de": "Der schöne Garten",
        "comment_en": "A small house with a beautiful garden and Netflix, but poorly soundproofed and, surprisingly, three other flatmates. Only a 20-minute walk to EPFL.",
        "photo_comment_en": "The nice garden",
        "photo_name": "1.JPG"
      }
    },
    {
      "type": "Feature",
      "geometry": {
        "type": "Point",
        "coordinates": [
          6.6407,
          46.52153333333333
        ]
      },
      "properties": {
        "name": "Résidence de l'Ours",
        "dates": "24.4./25.4.24, 25.4./26.4.24",
        "comment_de": "Nettes Empfangspersonal, aber ziemlich alt und an einer lauten Kreuzung gelegen.",
        "photo_comment_de": "In der Nähe befindet sich das Schweizerische Bundesgericht",
        "comment_en": "Nice reception staff, but quite old and located at a noisy intersection.",
        "photo_comment_en": "The Swiss Federal Supreme Court is nearby",
        "photo_name": "3.JPG"
      }
    }
  ]
}